{"type": "FeatureCollection", "features": [ {"type": "Feature", "properties": {"norad_id": 35602, "name": "COSMOS 2251 DEB", "group": "cosmos-2251-debris", "lat": -40.144966279747344, "lon": 151.72101406348864, "alt_km": 463.62142698090156, "timestamp": "2025-12-20T09:36:02.045462+00:00", "meta": {"OBJECT_NAME": "COSMOS 2251 DEB", "OBJECT_ID": "1993-036AMV", "EPOCH": "2025-12-19T12:02:08.754144", "MEAN_MOTION": 15.3532305, "ECCENTRICITY": 0.0089059, "INCLINATION": 73.9924, "RA_OF_ASC_NODE": 167.6664, "ARG_OF_PERICENTER": 231.9555, "MEAN_ANOMALY": 160.7824, "EPHEMERIS_TYPE": 0, "CLASSIFICATION_TYPE": "U", "NORAD_CAT_ID": 35602, "ELEMENT_SET_NO": 999, "REV_AT_EPOCH": 90195, "BSTAR": 0.00042337, "MEAN_MOTION_DOT": 0.00016543, "MEAN_MOTION_DDOT": 0}, "tle": {"line1": "1 35602U 93036AMV 25353.50149021  .00016543  00000+0  42337-3 0  9997", "line2": "2 35602  73.9924 167.6664 0089059 231.9555 160.7824 15.35323050901958"}}, "geometry": {"type": "Point", "coordinates": [151.72101406348864, -40.144966279747344]}}, {"type": "Feature", "properties": {"norad_id": 35605, "name": "COSMOS 2251 DEB", "group": "cosmos-2251-debris", "lat": 17.2956082663964, "lon": -34.818820973425055, "alt_km": 465.4766120001523, "timestamp": "2025-12-20T09:36:02.045472+00:00", "meta": {"OBJECT_NAME": "COSMOS 2251 DEB", "OBJECT_ID": "1993-036AMY", "EPOCH": "2025-12-16T05:30:02.725344", "MEAN_MOTION": 15.35586787, "ECCENTRICITY": 0.00242235, "INCLINATION": 73.8701, "RA_OF_ASC_NODE": 329.0606, "ARG_OF_PERICENTER": 257.5437, "MEAN_ANOMALY": 102.3057, "EPHEMERIS_TYPE": 0, "CLASSIFICATION_TYPE": "U", "NORAD_CAT_ID": 35605, "ELEMENT_SET_NO": 999, "REV_AT_EPOCH": 66025, "BSTAR": 0.0050760725, "MEAN_MOTION_DOT": 0.00181517, "MEAN_MOTION_DDOT": 0}, "tle": {"line1": "1 35605U 93036AMY 25350.22919821  .00181517  00000+0  50761-2 0  9992", "line2": "2 35605  73.8701 329.0606 0024223 257.5437 102.3057 15.35586787660251"}}, "geometry": {"type": "Point", "coordinates": [-34.818820973425055, 17.2956082663964]}}, {"type": "Feature", "properties": {"norad_id": 35606, "name": "COSMOS 2251 DEB", "group": "cosmos-2251-debris", "lat": 73.75161776681459, "lon": 93.1982637982836, "alt_km": 1211.1630295361365, "timestamp": "2025-12-20T09:36:02.045483+00:00", "meta": {"OBJECT_NAME": "COSMOS 2251 DEB", "OBJECT_ID": "1993-036AMZ", "EPOCH": "2025-12-17T18:27:28.365120", "MEAN_MOTION": 13.41216697, "ECCENTRICITY": 0.04572108, "INCLINATION": 73.8105, "RA_OF_ASC_NODE": 2.7804, "ARG_OF_PERICENTER": 207.7717, "MEAN_ANOMALY": 149.8287, "EPHEMERIS_TYPE": 0, "CLASSIFICATION_TYPE": "U", "NORAD_CAT_ID": 35606, "ELEMENT_SET_NO": 999, "REV_AT_EPOCH": 61107, "BSTAR": 0.0003718916, "MEAN_MOTION_DOT": 3.59e-06, "MEAN_MOTION_DDOT": 0}, "tle": {"line1": "1 35606U 93036AMZ 25351.76907830  .00000359  00000+0  37189-3 0  9994", "line2": "2 35606  73.8105   2.7804 0457210 207.7717 149.8287 13.41216697611071"}}, "geometry": {"type": "Point", "coordinates": [93.1982637982836, 73.75161776681459]}}, {"type": "Feature", "properties": {"norad_id": 35611, "name": "COSMOS 2251 DEB", "group": "cosmos-2251-debris", "lat": -64.7738512605271, "lon": 21.831781806252867, "alt_km": 643.6365839205228, "timestamp": "2025-12-20T09:36:02.045493+00:00", "meta": {"OBJECT_NAME": "COSMOS 2251 DEB", "OBJECT_ID": "1993-036ANE", "EPOCH": "2025-12-19T11:16:40.848672", "MEAN_MOTION": 14.73020971, "ECCENTRICITY": 0.0021353, "INCLINATION": 74.0189, "RA_OF_ASC_NODE": 166.1787, "ARG_OF_PERICENTER": 238.9125, "MEAN_ANOMALY": 120.9952, "EPHEMERIS_TYPE": 0, "CLASSIFICATION_TYPE": "U", "NORAD_CAT_ID": 35611, "ELEMENT_SET_NO": 999, "REV_AT_EPOCH": 87389, "BSTAR": 0.0015718, "MEAN_MOTION_DOT": 0.0001012, "MEAN_MOTION_DDOT": 0}, "tle": {"line1": "1 35611U 93036ANE 25353.46991723  .00010120  00000+0  15718-2 0  9993", "line2": "2 35611  74.0189 166.1787 0021353 238.9125 120.9952 14.73020971873894"}}, "geometry": {"type": "Point", "coordinates": [21.831781806252867, -64.7738512605271]}}, {"type": "Feature", "properties": {"norad_id": 35614, "name": "COSMOS 2251 DEB", "group": "cosmos-2251-debris", "lat": -26.72136182680497, "lon": 140.93551479219792, "alt_km": 636.6056378342764, "timestamp": "2025-12-20T09:36:02.045503+00:00", "meta": {"OBJECT_NAME": "COSMOS 2251 DEB", "OBJECT_ID": "1993-036ANH", "EPOCH": "2025-12-19T14:39:27.258624", "MEAN_MOTION": 14.67068253, "ECCENTRICITY": 0.0075268, "INCLINATION": 73.9589, "RA_OF_ASC_NODE": 314.1374, "ARG_OF_PERICENTER": 166.8412, "MEAN_ANOMALY": 193.4745, "EPHEMERIS_TYPE": 0, "CLASSIFICATION_TYPE": "U", "NORAD_CAT_ID": 35614, "ELEMENT_SET_NO": 999, "REV_AT_EPOCH": 87830, "BSTAR": 0.00049544, "MEAN_MOTION_DOT": 2.868e-05, "MEAN_MOTION_DDOT": 0}, "tle": {"line1": "1 35614U 93036ANH 25353.61073216  .00002868  00000+0  49544-3 0  9996", "line2": "2 35614  73.9589 314.1374 0075268 166.8412 193.4745 14.67068253878302"}}, "geometry": {"type": "Point", "coordinates": [140.93551479219792, -26.72136182680497]}}, {"type": "Feature", "properties": {"norad_id": 35645, "name": "COSMOS 2251 DEB", "group": "cosmos-2251-debris", "lat": 53.640965969823405, "lon": 96.38003688640207, "alt_km": 783.6964231395941, "timestamp": "2025-12-20T09:36:02.045513+00:00", "meta": {"OBJECT_NAME": "COSMOS 2251 DEB", "OBJECT_ID": "1993-036ANL", "EPOCH": "2025-12-19T21:42:33.800832", "MEAN_MOTION": 14.45678579, "ECCENTRICITY": 0.0069779, "INCLINATION": 73.9653, "RA_OF_ASC_NODE": 74.3121, "ARG_OF_PERICENTER": 231.253, "MEAN_ANOMALY": 128.2379, "EPHEMERIS_TYPE": 0, "CLASSIFICATION_TYPE": "U", "NORAD_CAT_ID": 35645, "ELEMENT_SET_NO": 999, "REV_AT_EPOCH": 86875, "BSTAR": 0.0013418, "MEAN_MOTION_DOT": 4.868e-05, "MEAN_MOTION_DDOT": 0}, "tle": {"line1": "1 35645U 93036ANL 25353.90455788  .00004868  00000+0  13418-2 0  9992", "line2": "2 35645  73.9653  74.3121 0069779 231.2530 128.2379 14.45678579868752"}}, "geometry": {"type": "Point", "coordinates": [96.38003688640207, 53.640965969823405]}}, {"type": "Feature", "properties": {"norad_id": 35646, "name": "COSMOS 2251 DEB", "group": "cosmos-2251-debris", "lat": -26.458591180799214, "lon": 35.59571263664732, "alt_km": 1453.0737398434385, "timestamp": "2025-12-20T09:36:02.045523+00:00", "meta": {"OBJECT_NAME": "COSMOS 2251 DEB", "OBJECT_ID": "1993-036ANM", "EPOCH": "2025-12-18T13:20:49.282080", "MEAN_MOTION": 13.40829033, "ECCENTRICITY": 0.04564144, "INCLINATION": 73.8718, "RA_OF_ASC_NODE": 46.7997, "ARG_OF_PERICENTER": 156.0103, "MEAN_ANOMALY": 279.1958, "EPHEMERIS_TYPE": 0, "CLASSIFICATION_TYPE": "U", "NORAD_CAT_ID": 35646, "ELEMENT_SET_NO": 999, "REV_AT_EPOCH": 81936, "BSTAR": 0.00040845832, "MEAN_MOTION_DOT": 3.96e-06, "MEAN_MOTION_DDOT": 0}, "tle": {"line1": "1 35646U 93036ANM 25352.55612595  .00000396  00000+0  40846-3 0  9992", "line2": "2 35646  73.8718  46.7997 0456414 156.0103 279.1958 13.40829033819363"}}, "geometry": {"type": "Point", "coordinates": [35.59571263664732, -26.458591180799214]}}, {"type": "Feature", "properties": {"norad_id": 35647, "name": "COSMOS 2251 DEB", "group": "cosmos-2251-debris", "lat": 67.45544016356486, "lon": -36.04235743936482, "alt_km": 721.3019385051684, "timestamp": "2025-12-20T09:36:02.045534+00:00", "meta": {"OBJECT_NAME": "COSMOS 2251 DEB", "OBJECT_ID": "1993-036ANN", "EPOCH": "2025-12-16T12:07:42.204576", "MEAN_MOTION": 14.43653976, "ECCENTRICITY": 0.00457493, "INCLINATION": 74.0235, "RA_OF_ASC_NODE": 287.5596, "ARG_OF_PERICENTER": 25.7805, "MEAN_ANOMALY": 334.5617, "EPHEMERIS_TYPE": 0, "CLASSIFICATION_TYPE": "U", "NORAD_CAT_ID": 35647, "ELEMENT_SET_NO": 999, "REV_AT_EPOCH": 67718, "BSTAR": 0.00059115508, "MEAN_MOTION_DOT": 2.005e-05, "MEAN_MOTION_DDOT": 0}, "tle": {"line1": "1 35647U 93036ANN 25350.50534959  .00002005  00000+0  59116-3 0  9992", "line2": "2 35647  74.0235 287.5596 0045749  25.7805 334.5617 14.43653976677182"}}, "geometry": {"type": "Point", "coordinates": [-36.04235743936482, 67.45544016356486]}}, {"type": "Feature", "properties": {"norad_id": 35650, "name": "COSMOS 2251 DEB", "group": "cosmos-2251-debris", "lat": -74.01096609309072, "lon": -89.50844078565176, "alt_km": 632.1041531981737, "timestamp": "2025-12-20T09:36:02.045544+00:00", "meta": {"OBJECT_NAME": "COSMOS 2251 DEB", "OBJECT_ID": "1993-036ANR", "EPOCH": "2025-12-20T00:25:12.387936", "MEAN_MOTION": 14.8379739, "ECCENTRICITY": 0.0014927, "INCLINATION": 74.0451, "RA_OF_ASC_NODE": 4.4654, "ARG_OF_PERICENTER": 48.3662, "MEAN_ANOMALY": 338.4229, "EPHEMERIS_TYPE": 0, "CLASSIFICATION_TYPE": "U", "NORAD_CAT_ID": 35650, "ELEMENT_SET_NO": 999, "REV_AT_EPOCH": 87742, "BSTAR": 0.0010239, "MEAN_MOTION_DOT": 8.476e-05, "MEAN_MOTION_DDOT": 0}, "tle": {"line1": "1 35650U 93036ANR 25354.01750449  .00008476  00000+0  10239-2 0  9990", "line2": "2 35650  74.0451   4.4654 0014927  48.3662 338.4229 14.83797390877427"}}, "geometry": {"type": "Point", "coordinates": [-89.50844078565176, -74.01096609309072]}}, {"type": "Feature", "properties": {"norad_id": 35660, "name": "COSMOS 2251 DEB", "group": "cosmos-2251-debris", "lat": -4.2415652052883015, "lon": 117.6347065879271, "alt_km": 728.9115635272065, "timestamp": "2025-12-20T09:36:02.045554+00:00", "meta": {"OBJECT_NAME": "COSMOS 2251 DEB", "OBJECT_ID": "1993-036APB", "EPOCH": "2025-12-15T02:38:46.156416", "MEAN_MOTION": 14.49937403, "ECCENTRICITY": 0.00182984, "INCLINATION": 74.0379, "RA_OF_ASC_NODE": 128.7781, "ARG_OF_PERICENTER": 277.071, "MEAN_ANOMALY": 198.1224, "EPHEMERIS_TYPE": 0, "CLASSIFICATION_TYPE": "U", "NORAD_CAT_ID": 35660, "ELEMENT_SET_NO": 999, "REV_AT_EPOCH": 65905, "BSTAR": 0.00040464315, "MEAN_MOTION_DOT": 1.541e-05, "MEAN_MOTION_DDOT": 0}, "tle": {"line1": "1 35660U 93036APB 25349.11025644  .00001541  00000+0  40464-3 0  9998", "line2": "2 35660  74.0379 128.7781 0018298 277.0710 198.1224 14.49937403659054"}}, "geometry": {"type": "Point", "coordinates": [117.6347065879271, -4.2415652052883015]}}]}